OBJECT_NAME,OBJECT_ID,EPOCH,MEAN_MOTION,ECCENTRICITY,INCLINATION,RA_OF_ASC_NODE,ARG_OF_PERICENTER,MEAN_ANOMALY,EPHEMERIS_TYPE,CLASSIFICATION_TYPE,NORAD_CAT_ID,ELEMENT_SET_NO,REV_AT_EPOCH,BSTAR,MEAN_MOTION_DOT,MEAN_MOTION_DDOT
STARLINK-6353,2023-088J,2026-07-20T01:57:20.022336,15.27577917,.00013713,43.0032,82.6754,267.9387,92.1307,0,U,57056,999,17058,.16208016E-4,.184E-5,0
STARLINK-6223,2023-088K,2026-07-20T00:32:25.489536,15.27577902,.00011996,43.0024,83.0671,257.1595,102.9123,0,U,57057,999,17057,.377782E-6,-.252E-5,0
STARLINK-6217,2023-088L,2026-07-19T22:43:28.001568,15.27582350,.00014259,43.0030,83.3871,266.9751,93.0938,0,U,57058,999,17056,.15866082E-4,.174E-5,0
STARLINK-6211,2023-088M,2026-07-19T00:47:07.129824,15.27576534,.00015657,43.0017,88.5559,309.2769,50.7944,0,U,57059,999,17042,.81815552E-4,.199E-4,0
STARLINK-6227,2023-088N,2026-07-20T01:42:44.899200,15.27569005,.00017603,43.0069,83.4462,266.3451,93.7200,0,U,57060,999,17057,-.18524994E-4,-.772E-5,0
STARLINK-5869,2023-088P,2026-07-20T00:40:48.138816,15.27168515,.00012955,43.0010,86.5319,232.1797,127.8937,0,U,57061,999,16955,-.60721347E-2,-.161715E-2,0
STARLINK-5536,2023-088Q,2026-07-19T22:11:06.705888,15.27565240,.00011785,43.0024,69.3388,273.2617,86.8100,0,U,57062,999,17072,-.34143042E-4,-.1201E-4,0
STARLINK-5832,2023-088R,2026-07-20T00:54:37.977984,15.27576303,.00009296,43.0022,83.1949,264.0562,96.0184,0,U,57063,999,17057,.6542739E-5,-.82E-6,0
STARLINK-5822,2023-088S,2026-07-20T00:41:40.755552,15.27576213,.00013142,43.0030,83.1312,221.1433,138.9320,0,U,57064,999,16959,.6848E-6,-.243E-5,0
STARLINK-5830,2023-088T,2026-07-19T17:14:14.027424,15.27573586,.00013157,43.0032,88.4748,273.7706,86.2996,0,U,57065,999,16950,-.12076011E-4,-.594E-5,0
STARLINK-5827,2023-088U,2026-07-20T00:49:04.889568,15.27576759,.00013144,43.0035,83.1704,216.9517,143.1245,0,U,57066,999,16959,-.380605E-6,-.273E-5,0
STARLINK-5824,2023-088V,2026-07-19T23:33:25.539840,15.27574355,.00011175,43.0030,83.6231,268.3281,91.7442,0,U,57067,999,17056,-.8701731E-5,-.501E-5,0
STARLINK-5844,2023-088W,2026-07-19T23:41:58.236576,15.27574994,.00011773,43.0047,87.0885,268.2416,91.8301,0,U,57068,999,17052,-.7844316E-5,-.478E-5,0
STARLINK-5821,2023-088X,2026-07-20T00:27:48.600000,15.27578096,.00011195,43.0049,69.2106,273.7769,86.2955,0,U,57069,999,17056,.824018E-5,-.35E-6,0
STARLINK-5828,2023-088Y,2026-07-19T22:16:41.205216,15.27511935,.00005122,43.0048,69.3913,208.5177,151.5647,0,U,57070,999,17072,.27402201E-3,.727E-4,0
STARLINK-5834,2023-088Z,2026-07-19T22:38:53.043072,15.27554882,.00014538,43.0049,69.5097,273.0726,86.9959,0,U,57071,999,17055,-.99087309E-4,-.2986E-4,0
STARLINK-5843,2023-088AA,2026-07-20T00:01:54.641568,15.27577066,.00011619,43.0030,69.0745,267.2866,92.7853,0,U,57072,999,16975,-.16168749E-4,-.707E-5,0
STARLINK-5838,2023-088AB,2026-07-19T23:56:21.538464,15.27575322,.0001156,43.0024,69.0477,265.1828,94.8892,0,U,57073,999,16975,.7944235E-5,-.43E-6,0
STARLINK-5773,2023-088AC,2026-07-19T23:36:25.149024,15.27575980,.00009203,43.0022,87.0570,262.8426,97.2321,0,U,57074,999,17052,.701816E-6,-.243E-5,0
STARLINK-5542,2023-088AD,2026-07-20T00:35:00.033216,15.27575772,.00015767,43.0051,68.3945,276.3940,83.6732,0,U,57075,999,17074,.17874947E-4,.23E-5,0
STARLINK-6155,2023-088AE,2026-07-20T00:07:27.680736,15.27573477,.0001166,43.0040,69.1110,262.7436,97.3284,0,U,57076,999,17056,-.8994803E-5,-.51E-5,0
STARLINK-6194,2023-088AF,2026-07-19T22:48:06.667488,15.27565203,.00011746,43.0045,69.5543,273.6701,86.4016,0,U,57077,999,17088,.28937866E-4,.534E-5,0
STARLINK-6245,2023-088AH,2026-07-19T23:15:39.302496,15.27573997,.0001452,43.0035,68.8422,271.2930,88.7755,0,U,57079,999,17073,.3139787E-5,-.176E-5,0
STARLINK-6243,2023-088AJ,2026-07-19T22:42:33.316416,15.27574080,.00009544,43.0042,69.5253,268.7264,91.3478,0,U,57080,999,17055,-.1493609E-5,-.303E-5,0
STARLINK-6184,2023-088AK,2026-07-19T21:52:35.842944,15.27576607,.00011967,43.0028,69.2632,256.8781,103.1937,0,U,57081,999,17072,.10912321E-4,.38E-6,0
STARLINK-6248,2023-088AL,2026-07-19T23:06:24.086592,15.27574713,.00016625,43.0061,68.7918,265.3228,94.7434,0,U,57082,999,17073,-.8908759E-5,-.507E-5,0
STARLINK-6253,2023-088AM,2026-07-19T22:12:58.428864,15.27570749,.0001292,43.0058,69.3559,247.0704,113.0012,0,U,57083,999,17072,.5526062E-5,-.11E-5,0
STARLINK-6240,2023-088AN,2026-07-17T16:25:43.619232,15.27740781,.00036011,43.0031,81.7937,245.6675,114.3801,0,U,57084,999,17038,-.11273332E-2,-.31312E-3,0
STARLINK-6232,2023-088AP,2026-07-19T16:42:22.075776,15.27577674,.00015278,43.0058,70.2296,275.3765,84.6913,0,U,57085,999,17069,.11177345E-4,.45E-6,0
STARLINK-6247,2023-088AQ,2026-07-19T23:32:18.791520,15.27579563,.00015291,43.0030,68.9250,255.3727,104.6955,0,U,57086,999,17073,-.26395318E-4,-.988E-5,0
