STARLINK-6353           
1 57056U 23088J   26201.08148174  .00000184  00000+0  16208-4 0  9991
2 57056  43.0032  82.6754 0001371 267.9387  92.1307 15.27577917170587
STARLINK-6223           
1 57057U 23088K   26201.02251724 -.00000252  00000+0  37778-6 0  9996
2 57057  43.0024  83.0671 0001199 257.1595 102.9123 15.27577902170571
STARLINK-6217           
1 57058U 23088L   26200.94685187  .00000174  00000+0  15866-4 0  9995
2 57058  43.0030  83.3871 0001425 266.9751  93.0938 15.27582350170564
STARLINK-6211           
1 57059U 23088M   26200.03272141  .00001990  00000+0  81816-4 0  9993
2 57059  43.0017  88.5559 0001565 309.2769  50.7944 15.27576534170424
STARLINK-6227           
1 57060U 23088N   26201.07135300 -.00000772  00000+0 -18525-4 0  9991
2 57060  43.0069  83.4462 0001760 266.3451  93.7200 15.27569005170571
STARLINK-5869           
1 57061U 23088P   26201.02833494 -.00161715  00000+0 -60721-2 0  9994
2 57061  43.0010  86.5319 0001295 232.1797 127.8937 15.27168515169553
STARLINK-5536           
1 57062U 23088Q   26200.92438317 -.00001201  00000+0 -34143-4 0  9992
2 57062  43.0024  69.3388 0001178 273.2617  86.8100 15.27565240170724
STARLINK-5832           
1 57063U 23088R   26201.03793956 -.00000082  00000+0  65427-5 0  9994
2 57063  43.0022  83.1949 0000929 264.0562  96.0184 15.27576303170570
STARLINK-5822           
1 57064U 23088S   26201.02894393 -.00000243  00000+0  68480-6 0  9993
2 57064  43.0030  83.1312 0001314 221.1433 138.9320 15.27576213169592
STARLINK-5830           
1 57065U 23088T   26200.71821791 -.00000594  00000+0 -12076-4 0  9999
2 57065  43.0032  88.4748 0001315 273.7706  86.2996 15.27573586169508
STARLINK-5827           
1 57066U 23088U   26201.03408437 -.00000273  00000+0 -38060-6 0  9991
2 57066  43.0035  83.1704 0001314 216.9517 143.1245 15.27576759169598
STARLINK-5824           
1 57067U 23088V   26200.98154560 -.00000501  00000+0 -87017-5 0  9999
2 57067  43.0030  83.6231 0001117 268.3281  91.7442 15.27574355170560
STARLINK-5844           
1 57068U 23088W   26200.98747959 -.00000478  00000+0 -78443-5 0  9996
2 57068  43.0047  87.0885 0001177 268.2416  91.8301 15.27574994170527
STARLINK-5821           
1 57069U 23088X   26201.01931250 -.00000035  00000+0  82402-5 0  9999
2 57069  43.0049  69.2106 0001119 273.7769  86.2955 15.27578096170560
STARLINK-5828           
1 57070U 23088Y   26200.92825469  .00007270  00000+0  27402-3 0  9998
2 57070  43.0048  69.3913 0000512 208.5177 151.5647 15.27511935170724
STARLINK-5834           
1 57071U 23088Z   26200.94366948 -.00002986  00000+0 -99087-4 0  9993
2 57071  43.0049  69.5097 0001453 273.0726  86.9959 15.27554882170559
STARLINK-5843           
1 57072U 23088AA  26201.00132687 -.00000707  00000+0 -16169-4 0  9992
2 57072  43.0030  69.0745 0001161 267.2866  92.7853 15.27577066169758
STARLINK-5838           
1 57073U 23088AB  26200.99747151 -.00000043  00000+0  79442-5 0  9994
2 57073  43.0024  69.0477 0001156 265.1828  94.8892 15.27575322169752
STARLINK-5773           
1 57074U 23088AC  26200.98362441 -.00000243  00000+0  70182-6 0  9994
2 57074  43.0022  87.0570 0000920 262.8426  97.2321 15.27575980170522
STARLINK-5542           
1 57075U 23088AD  26201.02430594  .00000230  00000+0  17875-4 0  9999
2 57075  43.0051  68.3945 0001576 276.3940  83.6732 15.27575772170740
STARLINK-6155           
1 57076U 23088AE  26201.00518149 -.00000510  00000+0 -89948-5 0  9995
2 57076  43.0040  69.1110 0001166 262.7436  97.3284 15.27573477170560
STARLINK-6194           
1 57077U 23088AF  26200.95007717  .00000534  00000+0  28938-4 0  9998
2 57077  43.0045  69.5543 0001174 273.6701  86.4016 15.27565203170880
STARLINK-6245           
1 57079U 23088AH  26200.96920489 -.00000176  00000+0  31398-5 0  9999
2 57079  43.0035  68.8422 0001452 271.2930  88.7755 15.27573997170734
STARLINK-6243           
1 57080U 23088AJ  26200.94621894 -.00000303  00000+0 -14936-5 0  9999
2 57080  43.0042  69.5253 0000954 268.7264  91.3478 15.27574080170557
STARLINK-6184           
1 57081U 23088AK  26200.91152596  .00000038  00000+0  10912-4 0  9997
2 57081  43.0028  69.2632 0001196 256.8781 103.1937 15.27576607170729
STARLINK-6248           
1 57082U 23088AL  26200.96277878 -.00000507  00000+0 -89088-5 0  9998
2 57082  43.0061  68.7918 0001662 265.3228  94.7434 15.27574713170731
STARLINK-6253           
1 57083U 23088AM  26200.92567626 -.00000110  00000+0  55261-5 0  9993
2 57083  43.0058  69.3559 0001292 247.0704 113.0012 15.27570749170722
STARLINK-6240           
1 57084U 23088AN  26198.68453263 -.00031312  00000+0 -11273-2 0  9995
2 57084  43.0031  81.7937 0003601 245.6675 114.3801 15.27740781170386
STARLINK-6232           
1 57085U 23088AP  26200.69608884  .00000045  00000+0  11177-4 0  9994
2 57085  43.0058  70.2296 0001527 275.3765  84.6913 15.27577674170698
STARLINK-6247           
1 57086U 23088AQ  26200.98077305 -.00000988  00000+0 -26395-4 0  9991
2 57086  43.0030  68.9250 0001529 255.3727 104.6955 15.27579563170734
